[{"OBJECT_NAME":"HIBARI","OBJECT_ID":"2021-102F","EPOCH":"2026-03-09T16:55:51.090816","MEAN_MOTION":15.29554512,"ECCENTRICITY":0.00120742,"INCLINATION":97.3381,"RA_OF_ASC_NODE":115.826,"ARG_OF_PERICENTER":186.5211,"MEAN_ANOMALY":173.5875,"EPHEMERIS_TYPE":0,"CLASSIFICATION_TYPE":"U","NORAD_CAT_ID":49400,"ELEMENT_SET_NO":999,"REV_AT_EPOCH":23897,"BSTAR":0.00042758039,"MEAN_MOTION_DOT":0.00012206,"MEAN_MOTION_DDOT":0},{"OBJECT_NAME":"STARLINK-35098","OBJECT_ID":"2025-195U","EPOCH":"2026-03-09T21:59:16.754496","MEAN_MOTION":15.30197709,"ECCENTRICITY":0.00010801,"INCLINATION":53.1595,"RA_OF_ASC_NODE":256.7514,"ARG_OF_PERICENTER":97.1483,"MEAN_ANOMALY":262.964,"EPHEMERIS_TYPE":0,"CLASSIFICATION_TYPE":"U","NORAD_CAT_ID":65476,"ELEMENT_SET_NO":999,"REV_AT_EPOCH":3001,"BSTAR":0.0010791254,"MEAN_MOTION_DOT":0.00031736,"MEAN_MOTION_DDOT":0}]
